*******************************************************************************
Ephemeris / WWW_USER Mon Jul 15 19:17:51 2024 Pasadena, USA      / Horizons    
*******************************************************************************
Target body name: (2018 YU2)                      {source: JPL#5}
Center body name: Earth (399)                     {source: DE441}
Center-site name: Gemini South Obs., Cerro Pachon
*******************************************************************************
Start time      : A.D. 2018-Dec-21 23:53:00.0000 UT      
Stop  time      : A.D. 2018-Dec-22 09:29:00.0000 UT      
Step-size       : 1 minutes
*******************************************************************************
Target pole/equ : undefined
Target radii    : undefined                                                    
Center geodetic : 289.2634, -30.2406227, 2.71233  {E-lon(deg),Lat(deg),Alt(km)}
Center cylindric: 289.2634,5517.21435,-3194.81213 {E-lon(deg),Dxy(km),Dz(km)}
Center pole/equ : ITRF93                          {East-longitude positive}
Center radii    : 6378.137, 6378.137, 6356.752 km {Equator_a, b, pole_c}       
Target primary  : Sun
Vis. interferer : MOON (R_eq= 1737.400) km        {source: DE441}
Rel. light bend : Sun                             {source: DE441}
Rel. lght bnd GM: 1.3271E+11 km^3/s^2                                          
Small-body perts: Yes                             {source: SB441-N16}
Atmos refraction: NO (AIRLESS)
RA format       : HMS
Time format     : CAL 
Calendar mode   : Mixed Julian/Gregorian
RTS-only print  : NO       
EOP file        : eop.240715.p241008                                           
EOP coverage    : DATA-BASED 1962-JAN-20 TO 2024-JUL-15. PREDICTS-> 2024-OCT-07
Units conversion: 1 au= 149597870.700 km, c= 299792.458 km/s, 1 day= 86400.0 s 
Table cut-offs 1: Elevation (-90.0deg=NO ),Airmass (>38.000=NO), Daylight (YES)
Table cut-offs 2: Solar elongation (  0.0,180.0=NO ),Local Hour Angle( 0.0=NO )
Table cut-offs 3: RA/DEC angular rate (     0.0=NO )                           
*******************************************************************************
Initial IAU76/J2000 heliocentric ecliptic osculating elements (au, days, deg.):
  EPOCH=  2458477.5 ! 2018-Dec-25.00 (TDB)         Residual RMS= .22887        
   EC= .1533598773405833   QR= .920984914841031    TP= 2458549.1486254167      
   OM= 279.4515303175068   W=  253.4059234937716   IN= 2.850769624588425       
  Equivalent ICRF heliocentric cartesian coordinates (au, au/d):
   X=-6.842297687009524E-02  Y= 9.429126817220428E-01  Z= 4.143187104036840E-01
  VX=-1.695115058702848E-02 VY=-2.997207899955317E-03 VZ=-2.239432528215744E-03
Asteroid physical parameters (km, seconds, rotational period in hours):        
   GM= n.a.                RAD= n.a.               ROTPER= n.a.                
   H= 26.5                 G= .150                 B-V= n.a.                   
                           ALBEDO= n.a.            STYP= n.a.                  
*******************************************************************************
 Date__(UT)__HR:MN     R.A._________(ICRF)_________DEC
******************************************************
$$SOE
 2018-Dec-22 08:05 Am  07 33 28.627842 +29 00 17.69688
 2018-Dec-22 08:06 Am  07 33 28.669072 +29 00 16.17383
 2018-Dec-22 08:07 Am  07 33 28.710391 +29 00 14.64962
 2018-Dec-22 08:08 Am  07 33 28.751799 +29 00 13.12426
 2018-Dec-22 08:09 Am  07 33 28.793297 +29 00 11.59775
 2018-Dec-22 08:10 Am  07 33 28.834885 +29 00 10.07009
 2018-Dec-22 08:11 Am  07 33 28.876565 +29 00 08.54128
 2018-Dec-22 08:12 Am  07 33 28.918337 +29 00 07.01133
 2018-Dec-22 08:13 Am  07 33 28.960202 +29 00 05.48024
 2018-Dec-22 08:14 Am  07 33 29.002160 +29 00 03.94801
 2018-Dec-22 08:15 Am  07 33 29.044212 +29 00 02.41464
 2018-Dec-22 08:16 Am  07 33 29.086359 +29 00 00.88014
 2018-Dec-22 08:17 Am  07 33 29.128602 +28 59 59.34451
 2018-Dec-22 08:18 Am  07 33 29.170941 +28 59 57.80775
 2018-Dec-22 08:19 Am  07 33 29.213377 +28 59 56.26986
 2018-Dec-22 08:20 Am  07 33 29.255911 +28 59 54.73085
 2018-Dec-22 08:21 Am  07 33 29.298543 +28 59 53.19072
 2018-Dec-22 08:22 Am  07 33 29.341274 +28 59 51.64948
 2018-Dec-22 08:23 Am  07 33 29.384106 +28 59 50.10711
 2018-Dec-22 08:24 Am  07 33 29.427038 +28 59 48.56364
 2018-Dec-22 08:25 Am  07 33 29.470071 +28 59 47.01905
 2018-Dec-22 08:26 Am  07 33 29.513206 +28 59 45.47336
 2018-Dec-22 08:27 Am  07 33 29.556444 +28 59 43.92657
 2018-Dec-22 08:28 Am  07 33 29.599785 +28 59 42.37867
 2018-Dec-22 08:29 Am  07 33 29.643230 +28 59 40.82967
 2018-Dec-22 08:30 Am  07 33 29.686781 +28 59 39.27958
 2018-Dec-22 08:31 Am  07 33 29.730436 +28 59 37.72840
 2018-Dec-22 08:32 Am  07 33 29.774198 +28 59 36.17612
 2018-Dec-22 08:33 Am  07 33 29.818066 +28 59 34.62276
 2018-Dec-22 08:34 Am  07 33 29.862042 +28 59 33.06832
 2018-Dec-22 08:35 Am  07 33 29.906126 +28 59 31.51279
 2018-Dec-22 08:36 Am  07 33 29.950319 +28 59 29.95618
 2018-Dec-22 08:37 Am  07 33 29.994622 +28 59 28.39850
 2018-Dec-22 08:38 Nm  07 33 30.039035 +28 59 26.83975
 2018-Dec-22 08:39 Nm  07 33 30.083559 +28 59 25.27993
 2018-Dec-22 08:40 Nm  07 33 30.128194 +28 59 23.71904
 2018-Dec-22 08:41 Nm  07 33 30.172941 +28 59 22.15709
 2018-Dec-22 08:42 Nm  07 33 30.217802 +28 59 20.59407
 2018-Dec-22 08:43 Nm  07 33 30.262776 +28 59 19.03001
 2018-Dec-22 08:44 Nm  07 33 30.307864 +28 59 17.46488
 2018-Dec-22 08:45 Nm  07 33 30.353067 +28 59 15.89871
 2018-Dec-22 08:46 Nm  07 33 30.398386 +28 59 14.33148
 2018-Dec-22 08:47 Nm  07 33 30.443821 +28 59 12.76322
 2018-Dec-22 08:48 Nm  07 33 30.489372 +28 59 11.19391
 2018-Dec-22 08:49 Nm  07 33 30.535042 +28 59 09.62356
 2018-Dec-22 08:50 Nm  07 33 30.580829 +28 59 08.05218
 2018-Dec-22 08:51 Nm  07 33 30.626735 +28 59 06.47976
 2018-Dec-22 08:52 Nm  07 33 30.672761 +28 59 04.90632
 2018-Dec-22 08:53 Nm  07 33 30.718907 +28 59 03.33185
 2018-Dec-22 08:54 Nm  07 33 30.765174 +28 59 01.75636
 2018-Dec-22 08:55 Nm  07 33 30.811562 +28 59 00.17985
 2018-Dec-22 08:56 Nm  07 33 30.858072 +28 58 58.60233
 2018-Dec-22 08:57 Nm  07 33 30.904704 +28 58 57.02379
 2018-Dec-22 08:58 Nm  07 33 30.951460 +28 58 55.44424
 2018-Dec-22 08:59 Nm  07 33 30.998340 +28 58 53.86369
 2018-Dec-22 09:00 Nm  07 33 31.045345 +28 58 52.28214
 2018-Dec-22 09:01 Nm  07 33 31.092474 +28 58 50.69958
 2018-Dec-22 09:02 Nm  07 33 31.139730 +28 58 49.11604
 2018-Dec-22 09:03 Nm  07 33 31.187112 +28 58 47.53150
 2018-Dec-22 09:04 Nm  07 33 31.234621 +28 58 45.94597
 2018-Dec-22 09:05 Nm  07 33 31.282257 +28 58 44.35945
 2018-Dec-22 09:06 Nm  07 33 31.330022 +28 58 42.77196
 2018-Dec-22 09:07 Nm  07 33 31.377916 +28 58 41.18349
 2018-Dec-22 09:08 Nm  07 33 31.425939 +28 58 39.59404
 2018-Dec-22 09:09 Nm  07 33 31.474093 +28 58 38.00362
 2018-Dec-22 09:10 Nm  07 33 31.522377 +28 58 36.41224
 2018-Dec-22 09:11 Cm  07 33 31.570792 +28 58 34.81989
 2018-Dec-22 09:12 Cm  07 33 31.619340 +28 58 33.22658
 2018-Dec-22 09:13 Cm  07 33 31.668019 +28 58 31.63231
 2018-Dec-22 09:14 Cm  07 33 31.716832 +28 58 30.03709
 2018-Dec-22 09:15 Cm  07 33 31.765779 +28 58 28.44092
 2018-Dec-22 09:16 Cm  07 33 31.814860 +28 58 26.84381
 2018-Dec-22 09:17 Cm  07 33 31.864076 +28 58 25.24575
 2018-Dec-22 09:18 Cm  07 33 31.913427 +28 58 23.64676
 2018-Dec-22 09:19 Cm  07 33 31.962915 +28 58 22.04683
 2018-Dec-22 09:20 Cm  07 33 32.012539 +28 58 20.44597
 2018-Dec-22 09:21 Cm  07 33 32.062300 +28 58 18.84418
 2018-Dec-22 09:22 Cm  07 33 32.112199 +28 58 17.24147
 2018-Dec-22 09:23 Cm  07 33 32.162236 +28 58 15.63784
 2018-Dec-22 09:24 Cm  07 33 32.212412 +28 58 14.03329
 2018-Dec-22 09:25 Cm  07 33 32.262728 +28 58 12.42783
 2018-Dec-22 09:26 Cm  07 33 32.313184 +28 58 10.82146
 2018-Dec-22 09:27 Cm  07 33 32.363780 +28 58 09.21419
 2018-Dec-22 09:28 Cm  07 33 32.414518 +28 58 07.60602
 2018-Dec-22 09:29 Cm  07 33 32.465397 +28 58 05.99695
